ONEWEB-0706             
1 61611U 24188T   25030.25002315  .00000013  00000+0  00000+0 0  9998
2 61611  87.9244 136.4621 0002455 252.8360 219.8860 13.24597736 15531
ONEWEB-0707             
1 61612U 24188U   25030.25002315  .00028649  00000+0  67382-1 0  9992
2 61612  87.9373 136.4770 0002171 352.0727 271.0416 13.23533947 15478
ONEWEB-0708             
1 61613U 24188V   25029.83336806 -.00019454  00000+0 -46258-1 0  9995
2 61613  87.8872 136.5465 0001526  64.0939 216.3563 13.23235097  5381
